#aV2010 12 24  0  0   .00000000      96 DD+AD WGS84 FIT  NGA
## 1615 432000.00000000   900.00000000 55554  .0000000000000
+   32     1  2  3  4  5  6  7  8  9 10 11 12 13 14 15 16 17
+         18 19 20 21 22 23 24 25 26 27 28 29 30 31 32  0  0
+          0  0  0  0  0  0  0  0  0  0  0  0  0  0  0  0  0
+          0  0  0  0  0  0  0  0  0  0  0  0  0  0  0  0  0
+          0  0  0  0  0  0  0  0  0  0  0  0  0  0  0  0  0
++         0  0  0  0  0  0  0  0  0  0  0  0  0  0  0  0  0
++         0  0  0  0  0  0  0  0  0  0  0  0  0  0  0  0  0
++         0  0  0  0  0  0  0  0  0  0  0  0  0  0  0  0  0
++         0  0  0  0  0  0  0  0  0  0  0  0  0  0  0  0  0
++         0  0  0  0  0  0  0  0  0  0  0  0  0  0  0  0  0
%c cc cc ccc ccc cccc cccc cccc cccc ccccc ccccc ccccc ccccc
%c cc cc ccc ccc cccc cccc cccc cccc ccccc ccccc ccccc ccccc
%f  0.0000000  0.000000000  0.00000000000  0.000000000000000
%f  0.0000000  0.000000000  0.00000000000  0.000000000000000
%i    0    0    0    0      0      0      0      0         0
%i    0    0    0    0      0      0      0      0         0
/*      NGA, ST. LOUIS,MO.                                  
/*   EPHEMERIS COMPUTED FROM  3 DAYS OF DATA                
/* CCCCCCCCCCCCCCCCCCCCCCCCCCCCCCCCCCCCCCCCCCCCCCCCCCCCCCCCC
/* CCCCCCCCCCCCCCCCCCCCCCCCCCCCCCCCCCCCCCCCCCCCCCCCCCCCCCCCC
*  2010 12 24  3  0   .00000000                                                 
P  1   3483.684929 -23596.263801 -11656.888647   -193.955043                    
V  1   8907.485566 -11869.854521  27075.454048      -.033335                    
P  2  12896.242012  23387.776509   2466.389171    310.489322                    
V  2  -4260.601204   -932.277575  30749.176936       .022952                    
P  3 -14923.335763 -11994.909450 -18935.791544    652.824434                    
V  3  22697.346410  -5157.784528 -14615.185499       .052565                    
P  4   4324.330179  23197.636961  11624.171460    252.761307                    
V  4 -10822.481004 -11241.370504  26363.013951       .098191                    
P  5   7127.971184  16257.899914 -19740.225635    -87.687189                    
V  5 -12921.480644  21531.370929  13177.703546      -.059526                    
P  6 -10075.291883 -14008.226661 -20076.422644    384.240695                    
V  6  25708.199287  -3318.477860 -10313.050429      -.083719                    
P  7 -12208.904662   8648.463396 -21933.857405       .779124                    
V  7 -14677.188342 -23648.350417  -1349.452886       .005235                    
P  8  -4381.027911  18047.496204 -18740.841044      7.073661                    
V  8 -12083.293069 -20724.002494 -17645.201901      -.000219                    
P  9  18840.106422  11055.931632  14575.462003     50.782091                    
V  9   9151.500590  17216.392343 -23991.866459       .024527                    
P 10  -5164.390200  23877.356590 -10152.398363    -61.210229                    
V 10  -8878.972897   9620.075229  28057.043920      -.011136                    
P 11 -22009.335337  -5913.798173  13601.251582   -113.697804                    
V 11 -10295.364442 -15066.753319 -22336.722297      -.029069                    
P 12  16077.522255    630.305355  21135.320923    -42.113714                    
V 12 -12323.074874  23756.980099   8831.904479       .034077                    
P 13 -23679.031649   5936.518237 -10656.156510    288.154588                    
V 13 -13192.721390  -2134.864463  28439.199368      -.011779                    
P 14   7917.106585 -13976.453579  21283.581704    118.101173                    
V 14  26600.367879   1184.830721  -9315.231291       .030846                    
P 15  25306.994762   3952.319515  -7313.105699   -168.712262                    
V 15  -9127.445603   3260.054062 -29606.054855       .040863                    
P 16  -2913.147225 -19249.258918 -17902.996777   -136.902500                    
V 16  12765.392273 -19037.055727  18633.676329      -.031177                    
P 17  -9832.994862  14193.545135  20234.796410    180.311501                    
V 17 -25508.303940  -1015.843461 -11970.329306       .007978                    
P 18  16690.868593 -19014.612168  -7133.594116    111.977317                    
V 18  -1377.999619  10204.781481 -29587.180252       .021240                    
P 19 -23350.064217  -8226.619613 -10051.103497    -94.864387                    
V 19  12765.258733  -1695.517664 -27932.987559      -.035273                    
P 20 -17734.450524   3937.224172  19212.856710     48.979389                    
V 20   9483.414985 -22985.919426  13431.575694      -.001293                    
P 21  12072.522173 -10142.409885 -20958.968743   -111.564393                    
V 21  14895.080321  23307.223444  -3269.270691      -.027084                    
P 22  10393.359106 -24111.946436   3826.643687    156.446884                    
V 22   5539.049371  -2253.782986 -30673.572187      -.006474                    
P 23 -26732.159581     35.568648    791.962682    336.367127                    
V 23    945.797869  -2385.848102  31633.023599      -.021653                    
P 24 -18741.009525  -9875.392999  16255.886035    350.462561                    
V 24  -8153.898795 -18858.787680 -20655.011995       .034345                    
P 25  17977.228069 -13877.019112  13761.281259    -59.607455                    
V 25  -6133.048179  16526.179565  24644.393528      -.022249                    
P 26  16416.699986  12293.433287 -17679.143526    -79.399034                    
V 26 -21118.767688    -63.088622 -19913.520569      -.087923                    
P 27  19337.255061  15460.902537  10631.965181    219.955117                    
V 27   5725.593899  11101.931470 -28143.485074       .036401                    
P 28 -12692.362023  23145.070939   1132.095933     10.903831                    
V 28  -2720.525939   -621.821953 -32171.619177       .019262                    
P 29  24648.905559  -5543.352794  -8053.426147    172.806694                    
V 29  10333.587077   2693.501193  29527.080254       .028462                    
P 30   6026.225384 -24853.107264  -7638.005271    307.433416                    
V 30   6312.283347  -7090.777236  29713.359490       .031915                    
P 31  -6027.208232 -23576.702593  10617.834760     21.909070                    
V 31   8652.987915  10187.778637  28289.371584       .040232                    
P 32 -14045.869199  -6624.087709  21830.021277   -159.796046                    
V 32  14443.864057 -22859.378716   2778.972886      -.081878                    
EOF
